SAUDISAT 1C             
1 27607U 02058C   17288.52321026  .00000100  00000-0  35084-4 0  9999
2 27607  64.5539 117.8241 0035693  38.6242 321.7403 14.75376429796865
SAUDISAT 2              
1 28371U 04025F   17288.84170889  .00000007  00000-0  12335-4 0  9998
2 28371  98.1481 240.1561 0025014 328.9884  30.9855 14.54270200705374
SAUDISAT 3              
1 31118U 07012B   17288.83590974 -.00000077  00000-0 -52218-5 0  9994
2 31118  97.7410 275.9280 0013642 240.5776 119.4081 14.69072607562722
PISAT                   
1 41784U 16059B   17288.24184528  .00000168  00000-0  41668-4 0  9999
2 41784  98.1543 348.5259 0032917 142.0009 218.3525 14.63262569 56135
FLYING LAPTOP           
1 42831U 17042G   17288.36988006  .00000429  00000-0  49143-4 0  9998
2 42831  97.6074 194.7172 0012889 297.5617  62.4292 14.90720245 13855
